[{"OBJECT_NAME":"ONEWEB-0060","OBJECT_ID":"2020-020AH","EPOCH":"2026-03-09T21:51:40.225536","MEAN_MOTION":13.11417253,"ECCENTRICITY":0.00013691,"INCLINATION":87.8862,"RA_OF_ASC_NODE":40.8046,"ARG_OF_PERICENTER":117.7657,"MEAN_ANOMALY":242.3609,"EPHEMERIS_TYPE":0,"CLASSIFICATION_TYPE":"U","NORAD_CAT_ID":45455,"ELEMENT_SET_NO":999,"REV_AT_EPOCH":28953,"BSTAR":0.0015646674,"MEAN_MOTION_DOT":5.67e-6,"MEAN_MOTION_DDOT":0},{"OBJECT_NAME":"SL-14 DEB","OBJECT_ID":"1991-056BD","EPOCH":"2026-03-09T19:16:38.934624","MEAN_MOTION":13.15511547,"ECCENTRICITY":0.0026402,"INCLINATION":82.5605,"RA_OF_ASC_NODE":217.0374,"ARG_OF_PERICENTER":87.5299,"MEAN_ANOMALY":272.8845,"EPHEMERIS_TYPE":0,"CLASSIFICATION_TYPE":"U","NORAD_CAT_ID":45315,"ELEMENT_SET_NO":999,"REV_AT_EPOCH":28954,"BSTAR":0.00066652509,"MEAN_MOTION_DOT":2.64e-6,"MEAN_MOTION_DDOT":0}]
